{
    "links": {
        "self": "http://www.neowsapp.com/rest/v1/neo/3747347?api_key=iIulBulltgU6a56xZRHN4H3l9WmuAYTsLGpBGhQ2"
    },
    "id": "3747347",
    "neo_reference_id": "3747347",
    "name": "(2016 ED158)",
    "designation": "2016 ED158",
    "nasa_jpl_url": "http://ssd.jpl.nasa.gov/sbdb.cgi?sstr=3747347",
    "absolute_magnitude_h": 22.9,
    "estimated_diameter": {
        "kilometers": {
            "estimated_diameter_min": 0.0699125232,
            "estimated_diameter_max": 0.1563291544
        },
        "meters": {
            "estimated_diameter_min": 69.9125232246,
            "estimated_diameter_max": 156.3291544087
        },
        "miles": {
            "estimated_diameter_min": 0.0434416145,
            "estimated_diameter_max": 0.097138403
        },
        "feet": {
            "estimated_diameter_min": 229.3718026961,
            "estimated_diameter_max": 512.8909429502
        }
    },
    "is_potentially_hazardous_asteroid": false,
    "close_approach_data": [
        {
            "close_approach_date": "2016-04-10",
            "close_approach_date_full": "2016-Apr-10 12:40",
            "epoch_date_close_approach": 1460292000000,
            "relative_velocity": {
                "kilometers_per_second": "16.7219829499",
                "kilometers_per_hour": "60199.1386195673",
                "miles_per_hour": "37405.4036605861"
            },
            "miss_distance": {
                "astronomical": "0.0741408797",
                "lunar": "28.8408022033",
                "kilometers": "11091317.683046239",
                "miles": "6891825.2300625382"
            },
            "orbiting_body": "Earth"
        },
        {
            "close_approach_date": "2087-03-24",
            "close_approach_date_full": "2087-Mar-24 10:05",
            "epoch_date_close_approach": 3699338700000,
            "relative_velocity": {
                "kilometers_per_second": "25.5235246701",
                "kilometers_per_hour": "91884.6888124752",
                "miles_per_hour": "57093.5723346183"
            },
            "miss_distance": {
                "astronomical": "0.3035064958",
                "lunar": "118.0640268662",
                "kilometers": "45403925.302843946",
                "miles": "28212690.9433246148"
            },
            "orbiting_body": "Earth"
        },
        {
            "close_approach_date": "2183-08-07",
            "close_approach_date_full": "2183-Aug-07 10:59",
            "epoch_date_close_approach": 6740535540000,
            "relative_velocity": {
                "kilometers_per_second": "14.5494646444",
                "kilometers_per_hour": "52378.0727197176",
                "miles_per_hour": "32545.6974629823"
            },
            "miss_distance": {
                "astronomical": "0.0980420365",
                "lunar": "38.1383521985",
                "kilometers": "14666879.830862255",
                "miles": "9113576.524738919"
            },
            "orbiting_body": "Earth"
        }
    ],
    "orbital_data": {
        "orbit_id": "15",
        "orbit_determination_date": "2017-04-06 08:27:25",
        "first_observation_date": "2016-03-13",
        "last_observation_date": "2016-04-04",
        "data_arc_in_days": 22,
        "observations_used": 81,
        "orbit_uncertainty": "8",
        "minimum_orbit_intersection": ".0624421",
        "jupiter_tisserand_invariant": "3.011",
        "epoch_osculation": "2457469.5",
        "eccentricity": ".6932143549336143",
        "semi_major_axis": "2.599319914457568",
        "inclination": "8.041907293590945",
        "ascending_node_longitude": "349.7675448205474",
        "orbital_period": "1530.692759984871",
        "perihelion_distance": ".7974340366907675",
        "perihelion_argument": "271.9704844193948",
        "aphelion_distance": "4.401205792224368",
        "perihelion_time": "2457529.465029282804",
        "mean_anomaly": "345.8969669772118",
        "mean_motion": ".2351876283804714",
        "equinox": "J2000",
        "orbit_class": {
            "orbit_class_type": "APO",
            "orbit_class_description": "Near-Earth asteroid orbits which cross the Earth’s orbit similar to that of 1862 Apollo",
            "orbit_class_range": "a (semi-major axis) > 1.0 AU; q (perihelion) < 1.017 AU"
        }
    },
    "is_sentry_object": false
}